NORAD_CAT_ID,OBJECT_NAME,OBJECT_TYPE,EPOCH,MEAN_MOTION,ECCENTRICITY,INCLINATION,RA_OF_ASC_NODE,ARG_OF_PERICENTER,MEAN_ANOMALY,BSTAR,MEAN_MOTION_DOT,MEAN_MOTION_DDOT,TLE_LINE0,TLE_LINE1,TLE_LINE2,SEMIMAJOR_AXIS,PERIOD,APOGEE,PERIGEE,DECAYED
55959.0,STARLINK-5929,PAYLOAD,2023-05-29 22:21:32,15.69929016,0.0002967,69.9971,335.3519,271.2226,88.863,7.2499e-06,6.59e-06,0.0,0 STARLINK-5929,1 55959U 23037AX  23149.93162731  .00000659  00000-0  72499-5 0  9995,2 55959  69.9971 335.3519 0002967 271.2226  88.8630 15.69929016 12016,6737.237,91.724,361.101,357.103,0.0
55959.0,STARLINK-5929,PAYLOAD,2023-05-30 06:00:18,15.69919498,0.0003213,69.9972,334.4571,270.9771,89.1057,1.9687e-05,2.155e-05,0.0,0 STARLINK-5929,1 55959U 23037AX  23150.25021394  .00002155  00000-0  19687-4 0  9993,2 55959  69.9972 334.4571 0003213 270.9771  89.1057 15.69919498 12066,6737.264,91.724,361.294,356.965,0.0
55959.0,STARLINK-5929,PAYLOAD,2023-05-30 12:07:18,15.69930119,0.0003181,69.9974,333.741,269.8437,90.2394,6.9447e-06,6.23e-06,0.0,0 STARLINK-5929,1 55959U 23037AX  23150.50507613  .00000623  00000-0  69447-5 0  9992,2 55959  69.9974 333.7410 0003181 269.8437  90.2394 15.69930119 11768,6737.234,91.724,361.242,356.956,0.0
55959.0,STARLINK-5929,PAYLOAD,2023-05-30 15:10:48,15.69931955,0.0003253,69.9973,333.3831,270.7345,89.3478,7.6928e-06,7.13e-06,0.0,0 STARLINK-5929,1 55959U 23037AX  23150.63250774  .00000713  00000-0  76928-5 0  9991,2 55959  69.9973 333.3831 0003253 270.7345  89.3478 15.69931955 12121,6737.229,91.724,361.285,356.902,0.0
55959.0,STARLINK-5929,PAYLOAD,2023-05-30 21:17:49,15.69929129,0.000322,69.9976,332.6668,271.3722,88.7105,5.9877e-06,5.07e-06,0.0,0 STARLINK-5929,1 55959U 23037AX  23150.88737619  .00000507  00000-0  59877-5 0  9991,2 55959  69.9976 332.6668 0003220 271.3722  88.7105 15.69929129 11820,6737.237,91.724,361.271,356.932,0.0
55959.0,STARLINK-5929,PAYLOAD,2023-05-31 11:03:35,15.69921311,0.0003267,69.9978,331.0543,275.6248,84.4575,7.7181e-06,7.15e-06,0.0,0 STARLINK-5929,1 55959U 23037AX  23151.46083256  .00000715  00000-0  77181-5 0  9996,2 55959  69.9978 331.0543 0003267 275.6248  84.4575 15.69921311 12255,6737.259,91.724,361.325,356.923,0.0
55959.0,STARLINK-5929,PAYLOAD,2023-05-31 14:07:05,15.69924365,0.000323,69.998,330.6961,276.4516,83.6312,9.4702e-06,9.26e-06,0.0,0 STARLINK-5929,1 55959U 23037AX  23151.58826379  .00000926  00000-0  94702-5 0  9992,2 55959  69.9980 330.6961 0003230 276.4516  83.6312 15.69924365 11930,6737.25,91.724,361.292,356.939,0.0
55959.0,STARLINK-5929,PAYLOAD,2023-05-31 18:42:20,15.69927036,0.0002826,69.9984,330.1607,264.3491,95.7382,2.5335e-05,2.835e-05,0.0,0 STARLINK-5929,1 55959U 23037AX  23151.77940829  .00002835  00000-0  25335-4 0  9996,2 55959  69.9984 330.1607 0002826 264.3491  95.7382 15.69927036 12305,6737.243,91.724,361.012,357.204,0.0
55959.0,STARLINK-5929,PAYLOAD,2023-05-31 21:45:52,15.69910932,0.0003203,69.9973,329.7992,274.751,85.332,-1.3306e-05,-1.811e-05,0.0,0 STARLINK-5929,1 55959U 23037AX  23151.90685870 -.00001811  00000-0 -13306-4 0  9993,2 55959  69.9973 329.7992 0003203 274.7510  85.3320 15.69910932 11988,6737.289,91.725,361.312,356.996,0.0
55959.0,STARLINK-5929,PAYLOAD,2023-06-01 05:24:37,15.69918927,0.0003484,69.9971,328.903,274.1652,85.9145,7.4105e-07,-1.24e-06,0.0,0 STARLINK-5929,1 55959U 23037AX  23152.22543505 -.00000124  00000-0  74105-6 0  9998,2 55959  69.9971 328.9030 0003484 274.1652  85.9145 15.69918927 12032,6737.266,91.724,361.478,356.784,0.0
55959.0,STARLINK-5929,PAYLOAD,2023-06-02 13:31:25,15.69921405,0.00034,69.9959,325.1402,268.567,91.5136,-9.3893e-07,-3.26e-06,0.0,0 STARLINK-5929,1 55959U 23037AX  23153.56348583 -.00000326  00000-0 -93893-6 0  9995,2 55959  69.9959 325.1402 0003400 268.5670  91.5136 15.69921405 12246,6737.259,91.724,361.415,356.833,0.0
55959.0,STARLINK-5929,PAYLOAD,2023-06-02 18:06:39,15.69928584,0.0003169,69.9989,324.6071,261.2082,98.8755,1.2834e-05,1.331e-05,0.0,0 STARLINK-5929,1 55959U 23037AX  23153.75462901  .00001331  00000-0  12834-4 0  9996,2 55959  69.9989 324.6071 0003169 261.2082  98.8755 15.69928584 12617,6737.238,91.724,361.238,356.968,0.0
55959.0,STARLINK-5929,PAYLOAD,2023-06-02 21:10:10,15.69922472,0.0003604,69.997,324.2477,267.2227,92.8556,1.3229e-05,1.378e-05,0.0,0 STARLINK-5929,1 55959U 23037AX  23153.88206622  .00001378  00000-0  13229-4 0  9996,2 55959  69.9970 324.2477 0003604 267.2227  92.8556 15.69922472 12291,6737.256,91.724,361.549,356.693,0.0
55959.0,STARLINK-5929,PAYLOAD,2023-06-03 10:55:56,15.69924206,0.0003857,69.9968,322.6347,275.9854,84.0902,9.0805e-06,8.79e-06,0.0,0 STARLINK-5929,1 55959U 23037AX  23154.45551785  .00000879  00000-0  90805-5 0  9994,2 55959  69.9968 322.6347 0003857 275.9854  84.0902 15.69924206 12721,6737.251,91.724,361.714,356.517,0.0
55959.0,STARLINK-5929,PAYLOAD,2023-06-03 13:59:26,15.69924788,0.0003942,69.9969,322.2764,275.4795,84.5951,1.436e-05,1.514e-05,0.0,0 STARLINK-5929,1 55959U 23037AX  23154.58294860  .00001514  00000-0  14360-4 0  9994,2 55959  69.9969 322.2764 0003942 275.4795  84.5951 15.69924788 12404,6737.249,91.724,361.77,356.458,0.0
55959.0,STARLINK-5929,PAYLOAD,2023-06-03 18:34:41,15.69935589,0.0003198,69.9989,321.7381,258.9037,101.1799,2.5267e-05,2.828e-05,0.0,0 STARLINK-5929,1 55959U 23037AX  23154.77408939  .00002828  00000-0  25267-4 0  9996,2 55959  69.9989 321.7381 0003198 258.9037 101.1799 15.69935589 12770,6737.218,91.724,361.238,356.929,0.0
55959.0,STARLINK-5929,PAYLOAD,2023-06-03 20:06:26,15.6993528,0.0003386,69.9984,321.5598,266.6947,93.3862,2.5121e-05,2.81e-05,0.0,0 STARLINK-5929,1 55959U 23037AX  23154.83780710  .00002810  00000-0  25121-4 0  9993,2 55959  69.9984 321.5598 0003386 266.6947  93.3862 15.69935280 12443,6737.219,91.724,361.365,356.803,0.0
55959.0,STARLINK-5929,PAYLOAD,2023-06-04 05:16:58,15.69919765,0.0003444,69.9978,320.4868,270.2556,89.8245,1.5451e-05,1.645e-05,0.0,0 STARLINK-5929,1 55959U 23037AX  23155.22011927  .00001645  00000-0  15451-4 0  9994,2 55959  69.9978 320.4868 0003444 270.2556  89.8245 15.69919765 12845,6737.264,91.724,361.449,356.808,0.0
55959.0,STARLINK-5929,PAYLOAD,2023-06-04 14:27:29,15.69918703,0.0003742,69.9985,319.4082,265.5309,94.546,7.5495e-06,6.95e-06,0.0,0 STARLINK-5929,1 55959U 23037AX  23155.60242146  .00000695  00000-0  75495-5 0  9994,2 55959  69.9985 319.4082 0003742 265.5309  94.5460 15.69918703 12565,6737.267,91.724,361.653,356.611,0.0
55959.0,STARLINK-5929,PAYLOAD,2023-06-04 19:02:43,15.69935545,0.0003914,69.9975,318.8726,275.6631,84.4118,1.7207e-05,1.857e-05,0.0,0 STARLINK-5929,1 55959U 23037AX  23155.79355984  .00001857  00000-0  17207-4 0  9996,2 55959  69.9975 318.8726 0003914 275.6631  84.4118 15.69935545 12935,6737.218,91.724,361.72,356.446,0.0
55959.0,STARLINK-5929,PAYLOAD,2023-06-04 20:34:28,15.69933381,0.0003953,69.9974,318.6934,275.1262,84.9482,1.4364e-05,1.515e-05,0.0,0 STARLINK-5929,1 55959U 23037AX  23155.85727808  .00001515  00000-0  14364-4 0  9993,2 55959  69.9974 318.6934 0003953 275.1262  84.9482 15.69933381 12600,6737.225,91.724,361.753,356.426,0.0
55959.0,STARLINK-5929,PAYLOAD,2023-06-05 13:23:45,15.69920608,0.0003563,69.9996,316.7231,260.0127,100.0667,7.1386e-06,6.45e-06,0.0,0 STARLINK-5929,1 55959U 23037AX  23156.55817049  .00000645  00000-0  71386-5 0  9999,2 55959  69.9996 316.7231 0003563 260.0127 100.0667 15.69920608 12718,6737.261,91.724,361.527,356.726,0.0
55959.0,STARLINK-5929,PAYLOAD,2023-06-05 21:02:30,15.69932741,0.0003899,69.9978,315.8259,273.984,86.091,2.6302e-06,1.03e-06,0.0,0 STARLINK-5929,1 55959U 23037AX  23156.87674743  .00000103  00000-0  26302-5 0  9993,2 55959  69.9978 315.8259 0003899 273.9840  86.0910 15.69932741 12765,6737.226,91.724,361.718,356.465,0.0
55959.0,STARLINK-5929,PAYLOAD,2023-06-06 19:58:48,15.69919945,0.0003537,69.9984,313.1369,289.3032,70.7781,-6.8644e-06,-1.038e-05,0.0,0 STARLINK-5929,1 55959U 23037AX  23157.83250684 -.00001038  00000-0 -68644-5 0  9999,2 55959  69.9984 313.1369 0003537 289.3032  70.7781 15.69919945 12912,6737.263,91.724,361.511,356.745,0.0
55959.0,STARLINK-5929,PAYLOAD,2023-06-07 09:44:35,15.69909077,0.0003997,69.9974,311.5258,270.4019,89.6718,-1.0413e-05,-1.464e-05,0.0,0 STARLINK-5929,1 55959U 23037AX  23158.40596680 -.00001464  00000-0 -10413-4 0  9995,2 55959  69.9974 311.5258 0003997 270.4019  89.6718 15.69909077 13348,6737.294,91.725,361.852,356.466,0.0
55959.0,STARLINK-5929,PAYLOAD,2023-06-07 14:19:49,15.69924902,0.0003649,69.9969,310.9885,270.6751,89.4027,7.7909e-06,7.24e-06,0.0,0 STARLINK-5929,1 55959U 23037AX  23158.59710569  .00000724  00000-0  77909-5 0  9999,2 55959  69.9969 310.9885 0003649 270.6751  89.4027 15.69924902 13378,6737.249,91.724,361.572,356.655,0.0
55959.0,STARLINK-5929,PAYLOAD,2023-06-07 20:26:49,15.69935775,0.0003975,69.9985,310.2692,256.5673,103.5079,2.5468e-05,2.852e-05,0.0,0 STARLINK-5929,1 55959U 23037AX  23158.85196233  .00002852  00000-0  25468-4 0  9990,2 55959  69.9985 310.2692 0003975 256.5673 103.5079 15.69935775 13075,6737.218,91.723,361.761,356.405,0.0
55959.0,STARLINK-5929,PAYLOAD,2023-06-08 10:12:36,15.69939146,0.0003245,69.9997,308.659,308.4333,51.6571,5.6892e-06,4.72e-06,0.0,0 STARLINK-5929,1 55959U 23037AX  23159.42541759  .00000472  00000-0  56892-5 0  9993,2 55959  69.9997 308.6590 0003245 308.4333  51.6571 15.69939146 13500,6737.208,91.723,361.259,356.887,0.0
55959.0,STARLINK-5929,PAYLOAD,2023-06-08 11:44:21,15.69926817,0.0003859,69.9998,308.4795,271.8217,88.2536,-1.8275e-05,-2.41e-05,0.0,0 STARLINK-5929,1 55959U 23037AX  23159.48913591 -.00002410  00000-0 -18275-4 0  9994,2 55959  69.9998 308.4795 0003859 271.8217  88.2536 15.69926817 13172,6737.243,91.724,361.708,356.508,0.0
55959.0,STARLINK-5929,PAYLOAD,2023-06-08 13:16:06,15.69927006,0.0003869,69.9998,308.3003,271.7022,88.373,-1.6473e-05,-2.194e-05,0.0,0 STARLINK-5929,1 55959U 23037AX  23159.55285242 -.00002194  00000-0 -16473-4 0  9994,2 55959  69.9998 308.3003 0003869 271.7022  88.3730 15.69927006 13524,6737.243,91.724,361.714,356.501,0.0
